start=new Date('2022-10-08T00:00:00.000Z').valueOf();
sats=[{"EPHEMERIS_TYPE":"0","OBJECT_ID":"2020-055B","SEMIMAJOR_AXIS":"6925.357","PERIOD":"95.592","CENTER_NAME":"EARTH","SITE":"AFETR","BSTAR":"0.00012865000000","ELEMENT_SET_NO":"999","MEAN_MOTION_DOT":"0.00001635","PERIAPSIS":"546.043","NORAD_CAT_ID":"46028","INCLINATION":"53.0569","DECAY_DATE":null,"CLASSIFICATION_TYPE":"U","GP_ID":"214431928","EPOCH":"2022-10-07T15:55:34.582944","APOAPSIS":"548.402","MEAN_MOTION_DDOT":"0.0000000000000","OBJECT_TYPE":"PAYLOAD","TLE_LINE2":"2 46028  53.0569 333.7057 0001703  58.8728 301.2427 15.06397166120643","MEAN_ANOMALY":"301.2427","TLE_LINE1":"1 46028U 20055B   22280.66359471  .00001635  00000-0  12865-3 0  9997","LAUNCH_DATE":"2020-08-07","RCS_SIZE":"LARGE","REF_FRAME":"TEME","MEAN_MOTION":"15.06397166","RA_OF_ASC_NODE":"333.7057","REV_AT_EPOCH":"12064","FILE":"3595773","ECCENTRICITY":"0.00017030","TIME_SYSTEM":"UTC","OBJECT_NAME":"STARLINK-1523","MEAN_ELEMENT_THEORY":"SGP4","ARG_OF_PERICENTER":"58.8728","COUNTRY_CODE":"US"},{"OBJECT_ID":"2020-055C","EPHEMERIS_TYPE":"0","SEMIMAJOR_AXIS":"6925.362","PERIOD":"95.592","CENTER_NAME":"EARTH","SITE":"AFETR","BSTAR":"0.00001814300000","ELEMENT_SET_NO":"999","MEAN_MOTION_DOT":"-0.00000011","NORAD_CAT_ID":"46029","PERIAPSIS":"546.002","INCLINATION":"53.0542","CLASSIFICATION_TYPE":"U","DECAY_DATE":null,"EPOCH":"2022-10-07T20:31:34.406976","GP_ID":"214432178","MEAN_MOTION_DDOT":"0.0000000000000","APOAPSIS":"548.452","OBJECT_TYPE":"PAYLOAD","TLE_LINE2":"2 46029  53.0542 332.8444 0001769  54.5440 305.5714 15.06395701120662","MEAN_ANOMALY":"305.5714","TLE_LINE1":"1 46029U 20055C   22280.85525934 -.00000011  00000-0  18143-4 0  9992","LAUNCH_DATE":"2020-08-07","RCS_SIZE":"LARGE","REF_FRAME":"TEME","MEAN_MOTION":"15.06395701","RA_OF_ASC_NODE":"332.8444","REV_AT_EPOCH":"12066","FILE":"3595773","ECCENTRICITY":"0.00017690","TIME_SYSTEM":"UTC","OBJECT_NAME":"STARLINK-1526","MEAN_ELEMENT_THEORY":"SGP4","COUNTRY_CODE":"US","ARG_OF_PERICENTER":"54.5440"},{"CENTER_NAME":"EARTH","SEMIMAJOR_AXIS":"6925.317","OBJECT_ID":"2020-055D","EPHEMERIS_TYPE":"0","PERIOD":"95.591","EPOCH":"2022-10-07T20:58:07.759488","GP_ID":"214432930","DECAY_DATE":null,"CLASSIFICATION_TYPE":"U","APOAPSIS":"548.662","MEAN_MOTION_DDOT":"0.0000000000000","BSTAR":"0.00042399000000","ELEMENT_SET_NO":"999","SITE":"AFETR","INCLINATION":"53.0546","PERIAPSIS":"545.703","NORAD_CAT_ID":"46030","MEAN_MOTION_DOT":"0.00006041","TLE_LINE1":"1 46030U 20055D   22280.87370092  .00006041  00000-0  42399-3 0  9996","MEAN_ANOMALY":"309.6826","OBJECT_TYPE":"PAYLOAD","TLE_LINE2":"2 46030  53.0546 332.7807 0002136  50.4352 309.6826 15.06410152120629","TIME_SYSTEM":"UTC","ECCENTRICITY":"0.00021360","FILE":"3595773","REV_AT_EPOCH":"12062","RA_OF_ASC_NODE":"332.7807","COUNTRY_CODE":"US","ARG_OF_PERICENTER":"50.4352","MEAN_ELEMENT_THEORY":"SGP4","OBJECT_NAME":"STARLINK-1534","LAUNCH_DATE":"2020-08-07","MEAN_MOTION":"15.06410152","REF_FRAME":"TEME","RCS_SIZE":"LARGE"},{"EPOCH":"2022-10-07T21:02:03.820704","GP_ID":"214433679","DECAY_DATE":null,"CLASSIFICATION_TYPE":"U","MEAN_MOTION_DDOT":"0.0000000000000","APOAPSIS":"548.818","ELEMENT_SET_NO":"999","BSTAR":"0.00017319000000","SITE":"AFETR","INCLINATION":"53.0566","NORAD_CAT_ID":"46031","PERIAPSIS":"545.607","MEAN_MOTION_DOT":"0.00002299","CENTER_NAME":"EARTH","SEMIMAJOR_AXIS":"6925.348","OBJECT_ID":"2020-055E","EPHEMERIS_TYPE":"0","PERIOD":"95.592","TIME_SYSTEM":"UTC","ECCENTRICITY":"0.00023180","FILE":"3595773","REV_AT_EPOCH":"12065","RA_OF_ASC_NODE":"332.7557","ARG_OF_PERICENTER":"37.6037","COUNTRY_CODE":"US","MEAN_ELEMENT_THEORY":"SGP4","OBJECT_NAME":"STARLINK-1544","LAUNCH_DATE":"2020-08-07","MEAN_MOTION":"15.06400306","REF_FRAME":"TEME","RCS_SIZE":"LARGE","TLE_LINE1":"1 46031U 20055E   22280.87643311  .00002299  00000-0  17319-3 0  9999","MEAN_ANOMALY":"322.5114","OBJECT_TYPE":"PAYLOAD","TLE_LINE2":"2 46031  53.0566 332.7557 0002318  37.6037 322.5114 15.06400306120650"},{"RCS_SIZE":"LARGE","REF_FRAME":"TEME","MEAN_MOTION":"15.06400135","LAUNCH_DATE":"2020-08-07","OBJECT_NAME":"STARLINK-1555","MEAN_ELEMENT_THEORY":"SGP4","ARG_OF_PERICENTER":"53.6641","COUNTRY_CODE":"US","REV_AT_EPOCH":"12066","RA_OF_ASC_NODE":"332.9298","FILE":"3595773","ECCENTRICITY":"0.00017300","TIME_SYSTEM":"UTC","TLE_LINE2":"2 46032  53.0554 332.9298 0001730  53.6641 306.4507 15.06400135120666","OBJECT_TYPE":"PAYLOAD","MEAN_ANOMALY":"306.4507","TLE_LINE1":"1 46032U 20055F   22280.84052254  .00003229  00000-0  23559-3 0  9994","MEAN_MOTION_DOT":"0.00003229","NORAD_CAT_ID":"46032","PERIAPSIS":"546.015","INCLINATION":"53.0554","SITE":"AFETR","BSTAR":"0.00023559000000","ELEMENT_SET_NO":"999","MEAN_MOTION_DDOT":"0.0000000000000","APOAPSIS":"548.411","CLASSIFICATION_TYPE":"U","DECAY_DATE":null,"GP_ID":"214432429","EPOCH":"2022-10-07T20:10:21.147456","PERIOD":"95.592","EPHEMERIS_TYPE":"0","OBJECT_ID":"2020-055F","SEMIMAJOR_AXIS":"6925.348","CENTER_NAME":"EARTH"},{"OBJECT_TYPE":"PAYLOAD","TLE_LINE2":"2 46033  53.0544 332.7128 0001769  57.5049 302.6111 15.06400902120642","MEAN_ANOMALY":"302.6111","TLE_LINE1":"1 46033U 20055G   22280.88843487  .00002110  00000-0  16054-3 0  9995","LAUNCH_DATE":"2020-08-07","RCS_SIZE":"LARGE","REF_FRAME":"TEME","MEAN_MOTION":"15.06400902","RA_OF_ASC_NODE":"332.7128","REV_AT_EPOCH":"12064","FILE":"3595773","ECCENTRICITY":"0.00017690","TIME_SYSTEM":"UTC","OBJECT_NAME":"STARLINK-1556","MEAN_ELEMENT_THEORY":"SGP4","ARG_OF_PERICENTER":"57.5049","COUNTRY_CODE":"US","EPHEMERIS_TYPE":"0","OBJECT_ID":"2020-055G","SEMIMAJOR_AXIS":"6925.346","PERIOD":"95.592","CENTER_NAME":"EARTH","SITE":"AFETR","ELEMENT_SET_NO":"999","BSTAR":"0.00016054000000","MEAN_MOTION_DOT":"0.00002110","NORAD_CAT_ID":"46033","PERIAPSIS":"545.986","INCLINATION":"53.0544","DECAY_DATE":null,"CLASSIFICATION_TYPE":"U","EPOCH":"2022-10-07T21:19:20.772768","GP_ID":"214432679","MEAN_MOTION_DDOT":"0.0000000000000","APOAPSIS":"548.436"},{"CENTER_NAME":"EARTH","PERIOD":"95.591","SEMIMAJOR_AXIS":"6925.317","OBJECT_ID":"2020-055H","EPHEMERIS_TYPE":"0","MEAN_MOTION_DDOT":"0.0000000000000","APOAPSIS":"548.467","EPOCH":"2022-10-07T10:15:54.135360","GP_ID":"214401120","DECAY_DATE":null,"CLASSIFICATION_TYPE":"U","PERIAPSIS":"545.897","NORAD_CAT_ID":"46034","INCLINATION":"53.0539","MEAN_MOTION_DOT":"0.00024659","SITE":"AFETR","ELEMENT_SET_NO":"999","BSTAR":"0.00166810000000","MEAN_ANOMALY":"301.3068","TLE_LINE1":"1 46034U 20055H   22280.42770990  .00024659  00000-0  16681-2 0  9991","TLE_LINE2":"2 46034  53.0539 334.7665 0001855  58.8102 301.3068 15.06410255120576","OBJECT_TYPE":"PAYLOAD","ARG_OF_PERICENTER":"58.8102","COUNTRY_CODE":"US","OBJECT_NAME":"STARLINK-1557","MEAN_ELEMENT_THEORY":"SGP4","ECCENTRICITY":"0.00018550","TIME_SYSTEM":"UTC","REV_AT_EPOCH":"12057","RA_OF_ASC_NODE":"334.7665","FILE":"3595509","REF_FRAME":"TEME","MEAN_MOTION":"15.06410255","RCS_SIZE":"LARGE","LAUNCH_DATE":"2020-08-07"},{"OBJECT_TYPE":"PAYLOAD","TLE_LINE2":"2 46035  53.0542 333.8349 0001687  61.7812 298.3347 15.06401950120638","TLE_LINE1":"1 46035U 20055J   22280.63410846  .00003538  00000-0  25628-3 0  9991","MEAN_ANOMALY":"298.3347","LAUNCH_DATE":"2020-08-07","MEAN_MOTION":"15.06401950","REF_FRAME":"TEME","RCS_SIZE":"LARGE","TIME_SYSTEM":"UTC","ECCENTRICITY":"0.00016870","FILE":"3595773","REV_AT_EPOCH":"12063","RA_OF_ASC_NODE":"333.8349","ARG_OF_PERICENTER":"61.7812","COUNTRY_CODE":"US","MEAN_ELEMENT_THEORY":"SGP4","OBJECT_NAME":"STARLINK-1558","SEMIMAJOR_AXIS":"6925.343","EPHEMERIS_TYPE":"0","OBJECT_ID":"2020-055J","PERIOD":"95.592","CENTER_NAME":"EARTH","ELEMENT_SET_NO":"999","BSTAR":"0.00025628000000","SITE":"AFETR","INCLINATION":"53.0542","PERIAPSIS":"546.039","NORAD_CAT_ID":"46035","MEAN_MOTION_DOT":"0.00003538","EPOCH":"2022-10-07T15:13:06.970944","GP_ID":"214433180","CLASSIFICATION_TYPE":"U","DECAY_DATE":null,"MEAN_MOTION_DDOT":"0.0000000000000","APOAPSIS":"548.376"},{"CLASSIFICATION_TYPE":"U","DECAY_DATE":null,"EPOCH":"2022-10-07T21:14:02.283360","GP_ID":"214431929","APOAPSIS":"548.668","MEAN_MOTION_DDOT":"0.0000000000000","ELEMENT_SET_NO":"999","BSTAR":"0.00014214000000","SITE":"AFETR","MEAN_MOTION_DOT":"0.00001836","INCLINATION":"53.0564","NORAD_CAT_ID":"46036","PERIAPSIS":"545.755","CENTER_NAME":"EARTH","EPHEMERIS_TYPE":"0","OBJECT_ID":"2020-055K","SEMIMAJOR_AXIS":"6925.346","PERIOD":"95.592","FILE":"3595773","REV_AT_EPOCH":"12067","RA_OF_ASC_NODE":"332.7341","TIME_SYSTEM":"UTC","ECCENTRICITY":"0.00021030","MEAN_ELEMENT_THEORY":"SGP4","OBJECT_NAME":"STARLINK-1560","ARG_OF_PERICENTER":"48.1726","COUNTRY_CODE":"US","LAUNCH_DATE":"2020-08-07","RCS_SIZE":"LARGE","MEAN_MOTION":"15.06400749","REF_FRAME":"TEME","TLE_LINE1":"1 46036U 20055K   22280.88474865  .00001836  00000-0  14214-3 0  9998","MEAN_ANOMALY":"311.9442","OBJECT_TYPE":"PAYLOAD","TLE_LINE2":"2 46036  53.0564 332.7341 0002103  48.1726 311.9442 15.06400749120677"},{"PERIAPSIS":"546.001","NORAD_CAT_ID":"46037","INCLINATION":"53.0546","MEAN_MOTION_DOT":"0.00002863","SITE":"AFETR","ELEMENT_SET_NO":"999","BSTAR":"0.00021101000000","MEAN_MOTION_DDOT":"0.0000000000000","APOAPSIS":"548.418","GP_ID":"214432179","EPOCH":"2022-10-07T21:08:44.096352","CLASSIFICATION_TYPE":"U","DECAY_DATE":null,"PERIOD":"95.592","SEMIMAJOR_AXIS":"6925.345","EPHEMERIS_TYPE":"0","OBJECT_ID":"2020-055L","CENTER_NAME":"EARTH","REF_FRAME":"TEME","MEAN_MOTION":"15.06401300","RCS_SIZE":"LARGE","LAUNCH_DATE":"2020-08-07","ARG_OF_PERICENTER":"54.4162","COUNTRY_CODE":"US","OBJECT_NAME":"STARLINK-1565","MEAN_ELEMENT_THEORY":"SGP4","ECCENTRICITY":"0.00017450","TIME_SYSTEM":"UTC","REV_AT_EPOCH":"12066","RA_OF_ASC_NODE":"332.7515","FILE":"3595773","TLE_LINE2":"2 46037  53.0546 332.7515 0001745  54.4162 305.6989 15.06401300120665","OBJECT_TYPE":"PAYLOAD","MEAN_ANOMALY":"305.6989","TLE_LINE1":"1 46037U 20055L   22280.88106593  .00002863  00000-0  21101-3 0  9993"}];
